[{"OBJECT_NAME":"YUNYAO-1 18","OBJECT_ID":"2024-009A","EPOCH":"2026-03-09T23:31:57.952704","MEAN_MOTION":15.20880734,"ECCENTRICITY":0.00048808,"INCLINATION":49.9885,"RA_OF_ASC_NODE":282.3937,"ARG_OF_PERICENTER":244.6654,"MEAN_ANOMALY":115.3794,"EPHEMERIS_TYPE":0,"CLASSIFICATION_TYPE":"U","NORAD_CAT_ID":58758,"ELEMENT_SET_NO":999,"REV_AT_EPOCH":11973,"BSTAR":0.00063747175,"MEAN_MOTION_DOT":0.00014001,"MEAN_MOTION_DDOT":0},{"OBJECT_NAME":"OBJECT AB","OBJECT_ID":"2025-313AB","EPOCH":"2026-03-09T21:33:15.622272","MEAN_MOTION":15.20494709,"ECCENTRICITY":0.00144255,"INCLINATION":97.4026,"RA_OF_ASC_NODE":145.1102,"ARG_OF_PERICENTER":5.4731,"MEAN_ANOMALY":354.6659,"EPHEMERIS_TYPE":0,"CLASSIFICATION_TYPE":"U","NORAD_CAT_ID":67273,"ELEMENT_SET_NO":999,"REV_AT_EPOCH":1084,"BSTAR":0.00020492613,"MEAN_MOTION_DOT":4.42e-5,"MEAN_MOTION_DDOT":0}]
